[{"OBJECT_NAME":"SAOCOM 1A","OBJECT_ID":"2018-076A","EPOCH":"2026-03-09T23:06:42.673824","MEAN_MOTION":14.82173643,"ECCENTRICITY":0.00013387,"INCLINATION":97.8895,"RA_OF_ASC_NODE":257.1316,"ARG_OF_PERICENTER":83.6952,"MEAN_ANOMALY":276.4413,"EPHEMERIS_TYPE":0,"CLASSIFICATION_TYPE":"U","NORAD_CAT_ID":43641,"ELEMENT_SET_NO":999,"REV_AT_EPOCH":40140,"BSTAR":0.0001704308,"MEAN_MOTION_DOT":1.305e-5,"MEAN_MOTION_DDOT":0},{"OBJECT_NAME":"SL-14 R\/B","OBJECT_ID":"1987-024B","EPOCH":"2026-03-09T13:42:45.789120","MEAN_MOTION":14.86131911,"ECCENTRICITY":0.0016681,"INCLINATION":82.5247,"RA_OF_ASC_NODE":92.875,"ARG_OF_PERICENTER":260.348,"MEAN_ANOMALY":99.5853,"EPHEMERIS_TYPE":0,"CLASSIFICATION_TYPE":"U","NORAD_CAT_ID":17567,"ELEMENT_SET_NO":999,"REV_AT_EPOCH":8811,"BSTAR":6.0637e-5,"MEAN_MOTION_DOT":5.57e-6,"MEAN_MOTION_DDOT":0}]
